{
    "links": {
        "self": "http://www.neowsapp.com/rest/v1/neo/3332413?api_key=iIulBulltgU6a56xZRHN4H3l9WmuAYTsLGpBGhQ2"
    },
    "id": "3332413",
    "neo_reference_id": "3332413",
    "name": "(2006 JM6)",
    "designation": "2006 JM6",
    "nasa_jpl_url": "http://ssd.jpl.nasa.gov/sbdb.cgi?sstr=3332413",
    "absolute_magnitude_h": 23.7,
    "estimated_diameter": {
        "kilometers": {
            "estimated_diameter_min": 0.0483676488,
            "estimated_diameter_max": 0.1081533507
        },
        "meters": {
            "estimated_diameter_min": 48.3676488219,
            "estimated_diameter_max": 108.1533506775
        },
        "miles": {
            "estimated_diameter_min": 0.0300542543,
            "estimated_diameter_max": 0.0672033557
        },
        "feet": {
            "estimated_diameter_min": 158.6865169607,
            "estimated_diameter_max": 354.8338390368
        }
    },
    "is_potentially_hazardous_asteroid": false,
    "close_approach_data": [
        {
            "close_approach_date": "2006-05-14",
            "close_approach_date_full": "2006-May-14 12:11",
            "epoch_date_close_approach": 1147608660000,
            "relative_velocity": {
                "kilometers_per_second": "8.0779226368",
                "kilometers_per_hour": "29080.5214923331",
                "miles_per_hour": "18069.5051461666"
            },
            "miss_distance": {
                "astronomical": "0.0485926355",
                "lunar": "18.9025352095",
                "kilometers": "7269354.768486385",
                "miles": "4516967.598566713"
            },
            "orbiting_body": "Earth"
        }
    ],
    "orbital_data": {
        "orbit_id": "9",
        "orbit_determination_date": "2017-04-06 09:08:40",
        "first_observation_date": "2006-05-05",
        "last_observation_date": "2006-05-16",
        "data_arc_in_days": 11,
        "observations_used": 30,
        "orbit_uncertainty": "8",
        "minimum_orbit_intersection": ".0318139",
        "jupiter_tisserand_invariant": "3.641",
        "epoch_osculation": "2453862.5",
        "eccentricity": ".4881288436833746",
        "semi_major_axis": "2.028520118514756",
        "inclination": "9.189591052048629",
        "ascending_node_longitude": "42.64842187214575",
        "orbital_period": "1055.279267438719",
        "perihelion_distance": "1.038340938675686",
        "perihelion_argument": "187.601467396305",
        "aphelion_distance": "3.018699298353826",
        "perihelion_time": "2453868.529590119513",
        "mean_anomaly": "357.9430540237059",
        "mean_motion": ".3411419243303817",
        "equinox": "J2000",
        "orbit_class": {
            "orbit_class_type": "AMO",
            "orbit_class_description": "Near-Earth asteroid orbits similar to that of 1221 Amor",
            "orbit_class_range": "1.017 AU < q (perihelion) < 1.3 AU"
        }
    },
    "is_sentry_object": false
}